#dP2022 11  6  0  0  0.00000000      97 __u+U IGS14 FIT  IAC
## 2235      0.00000000   900.00000000 59889 0.0000000000000
+  116   C06C07C08C09C10C11C12C13C14C16C19C20C21C22C23C24C25
+        C26C27C28C29C30C32C33C34C35C36C37C38C39C40C41C42C43
+        C44C45C46E01E02E03E04E05E07E08E09E10E11E12E13E14E15
+        E18E19E21E24E25E26E27E30E31E33E34E36G01G02G03G04G05
+        G06G07G08G09G10G11G12G13G14G15G16G17G18G19G20G21G22
+        G23G24G25G26G27G29G30G31G32J03J04R01R02R03R04R05R07
+        R08R09R11R12R13R14R15R17R18R19R20R21R22R24  0  0  0
++         7  8  8  7  7  6  6  7  7  7  5  6  5  5  6  6  6
++         6  6  6  6  5  6  6  6  6  5  6  6  6  6  6  6  6
++         6  6  5  4  4  4  4  4  5  4  4  4  4  4  4  5  4
++         4  4  5  4  4  4  5  4  4  4  4  4  3  3  3  3  3
++         4  3  3  3  3  3  3  3  3  3  3  4  3  3  3  3  4
++         3  3  3  3  3  3  3  4  4  9 10  7  6  6  6  6  6
++         6  6  6  6  6  6  6  6  6  7  7  6  8  6  0  0  0
%c M  cc GPS ccc cccc cccc cccc cccc ccccc ccccc ccccc ccccc
%c cc cc ccc ccc cccc cccc cccc cccc ccccc ccccc ccccc ccccc
%f  1.2500000  1.025000000  0.00000000000  0.000000000000000
%f  0.0000000  0.000000000  0.00000000000  0.000000000000000
%i    0    0    0    0      0      0      0      0         0
%i    0    0    0    0      0      0      0      0         0
/* INFORMATION & ANALYSIS CENTER (IAC)            FINAL DATA
/* S/V CLOCKS ARE ALIGNED TO GNSS TIME                      
/* G:C1WC2W R:C1PC2P E:C1XC5X C:C2IC6I J:C1CC2S             
/* PCV:IGS14_2233 OL/AL:FES2004  NONE     YN ORB:CoN CLK:CoN
*  2022 11 06  8 15  0.00000000
PC06  -9861.081638  23394.525616  33642.893694      7.486978
PC07 -15244.871741  38888.316062  -6309.785698    253.151157
PC08    203.339750  33249.074507 -25812.372552    507.544018
PC09   1574.189700  24990.822034  34337.397198   -814.524474
PC10  -9341.822354  39348.908281 -12496.204512     72.673461
PC11 -14656.199407  13088.036159 -19756.355758   -308.507374
PC12 -27009.692919   4194.670710  -5633.947417    289.759841
PC13   7190.766627  37266.257903 -17929.310507    126.155035
PC14 -13359.158006  24522.865190   -636.038165    629.473769
PC16 -15376.261515  21627.274759  32888.258125    120.556447
PC19   6814.182449 -25645.388424  -8603.868081   -918.042799
PC20  17099.444397 -20458.926181   8201.419643    845.292099
PC21 -17843.840085   2530.055864 -21302.752407   -761.839005
PC22  -7909.524230 -16249.546745 -21267.382662   -809.251597
PC23  15762.233787  22961.103652  -1674.195323   -880.514309
PC24 -13236.615153   9537.225853  22629.353066   -845.197469
PC25   3350.087807  23710.946915  14301.783331     20.542542
PC26 -20210.097020  -7654.274892  17663.057683    -31.965916
PC27  27733.133550   1326.347050  -2867.346720     47.154803
PC28  18140.538471  11787.071136 -17616.237697     32.790450
PC29   2722.495931 -16000.627045  22698.018944     36.770410
PC30  22058.892881 -10691.096105  13349.687692      0.859810
PC32  17802.780799  -2530.462850  21345.820910   -729.120605
PC33  -6729.460298  25715.109027   8507.747632   -917.899201
PC34 -21175.562348  11261.959634 -14258.848674     33.135996
PC35 -17141.711551 -11912.723092  18501.243240     75.633076
PC36  -2306.933099 -23574.627123 -14739.612629   -862.499798
PC37  20147.386623   9373.000934 -16850.928985   -747.934562
PC38  -6547.806376  29177.560922 -29634.111892     36.215363
PC39 -19688.737000  21006.879085  30753.076676     -0.791347
PC40 -22568.139258  35557.079028  -3709.105934     -7.519793
PC41   7602.498187  16725.363615  21047.312895   -247.356037
PC42 -17463.404481  19706.707755  -9228.564801   -611.458393
PC43  -3643.191235  16084.356992 -22514.150689     23.515853
PC44 -27722.313331   -455.008418   3027.364990    105.044060
PC45 -15952.950818 -22823.661732   2046.786447    -18.944965
PC46  11900.453104 -11276.694460 -22585.529944    -11.154687
PE01  15051.030645  13475.410372 -21625.457292   -560.652667
PE02 -15112.239881 -13280.641549  21721.245088      0.909715
PE03 -21900.751317  -2857.875718 -19720.770526   -617.204390
PE04  26417.395068 -12627.917050   4352.895803  -1152.574649
PE05  -4385.726662 -17015.419991 -23825.955112   -127.359807
PE07 -15384.641211  21048.043266  14018.862309   -719.214798
PE08 -26373.701230  12718.705189  -4373.887155   -627.739362
PE09  15539.201223 -20993.597485 -13924.427734   -719.330569
PE10  15691.136212  -8782.516269  23505.251342   -488.864041
PE11   5132.269535 -15432.253495  24725.767694   1455.006901
PE12  22969.695042  -1343.241502  18626.532441   -262.083585
PE13  -6007.529488  14918.345619 -24843.891083    430.646467
PE14  -9910.050414 -12670.646191  18681.106519     48.755241
PE15 -23098.080779   1121.687042 -18471.959480    709.259352
PE18   3501.207355  20266.684928 -24044.289734   -775.465022
PE19  20083.164254   5002.200777  21161.925377  -4069.985048
PE21   6532.487002  27565.679253  -8565.876788   -493.022712
PE24   7110.549286 -26493.967521 -11164.927857   -932.040088
PE25  -6354.861072 -27700.719256   8300.918437   -592.010462
PE26  15118.372844  19897.334629 -15848.907575  -1812.919482
PE27  -6396.570395  26983.662680  10339.963147   -432.950813
PE30 -15702.445686   9598.439595  23175.622089   -976.027601
PE31  15417.750393 -10547.996357 -22951.509656   -507.492071
PE33  26445.476051  13235.170924   1258.999647   -455.367192
PE34 -26519.634468 -13092.615537  -1428.130903    -13.199424
PE36 -14424.365279 -19828.620798  16588.042474   -456.751442
PG01  22433.287593  14527.567071    752.732850    255.997109
PG02 -23681.103192 -11615.449175  -1627.786546   -639.119668
PG03  12120.390781  13934.792203  19006.190528   -370.964065
PG04  19558.866525   4367.964937  17484.392457    -91.254509
PG05  -6885.658367 -23524.255206 -10248.385505   -103.230317
PG06   6563.680541 -13165.418758  22174.453225    511.215867
PG07  22561.804550   3207.966427 -13616.140942    290.703538
PG08  10649.804153  11385.709936 -21579.022202    -92.455476
PG09  24357.147319  -5988.839766   8724.621964   -272.760987
PG10 -11350.568190  18142.018447 -15368.202799    -10.705795
PG11  -5215.188175 -19063.835811  17766.468249    -35.567039
PG12 -10958.265831 -15272.628759  18538.137254   -300.964571
PG13  -1590.967606 -15303.388366 -21807.304449    419.589578
PG14  13234.049644 -16016.448463 -16472.853697    -86.614885
PG15 -12370.928969 -10790.665296 -21356.637847    -14.745451
PG16    469.708130  25684.578748  -5986.240146   -526.851425
PG17  22488.899349 -13425.496873   5070.613845    675.468143
PG18 -21365.644277  -1520.348545 -15799.097611    -11.808343
PG19  15447.838189 -16032.431348  14052.800662    233.659266
PG20   -430.183327 -26468.536803   3378.597457    472.380900
PG21  20039.918351  16349.036622  -6965.033044    156.628684
PG22 -12130.676466  17297.725377  16409.964306    359.366174
PG23 -14536.692195   7294.724171 -20977.178580     -1.126638
PG24 -21861.077185 -15067.004204  -3903.508286     70.527325
PG25 -15005.355759  -3229.415184  21397.638190    389.857585
PG26  -4160.402445  25357.237164   5899.068527    234.939580
PG27  -1829.007124  16789.177612 -20614.967375    184.019534
PG29 -24396.370192   2690.182977  10210.863629   -565.186551
PG30  15418.664848  -7585.459586 -20220.979472   -536.924125
PG31  -6016.633650  14235.479432  21407.386945   -199.274248
PG32 -19959.644500  15926.087155   7072.525541   -287.089037
PJ03 -30847.345149  16384.895742 -18970.197227     -4.128367
PJ04 -22950.279192  33340.918935  -6877.818040    112.609902
PR01   9373.918428   5880.806330  22976.524053     17.420839
PR02  17786.744795 -11183.559727  14552.302628    -23.233114
PR03  15001.256742 -20560.709115  -2114.528648     66.798493
PR04   4182.139810 -18194.452974 -17370.428975    163.901565
PR05  -8985.123353  -6031.778144 -23093.563525    102.447751
PR07 -14587.576521  20676.047774   3012.983212     43.828922
PR08  -3836.856557  18171.395742  17517.344794    -67.950403
PR09 -11994.915467    237.691665  22520.740504     86.065234
PR11   7065.388412  23882.083394   5557.631089     21.984960
PR12  13630.762960  17224.673155 -12926.160342     22.618628
PR13  12286.305532   1685.791895 -22303.086541    -28.567985
PR14   3073.825660 -16749.248792 -18972.933031     24.150987
PR15  -7345.157585 -24011.281156  -4470.595874     92.825696
PR17  12293.415286  -7752.513867  20962.859521    575.641400
PR18  -5599.716389 -11050.280665  22309.942372     50.652441
PR19 -19653.237249  -9654.526876  13099.171132   -209.965045
PR20 -24417.539725  -1457.114426  -7162.474960    -81.640361
PR21 -10807.223545   8136.379720 -21628.393572   -347.484112
PR22   5976.100715  11683.816799 -21845.103927     15.452794
PR24  24286.093179    240.247359   7782.428935    124.785552
EOF
